OBJECT_NAME,OBJECT_ID,EPOCH,MEAN_MOTION,ECCENTRICITY,INCLINATION,RA_OF_ASC_NODE,ARG_OF_PERICENTER,MEAN_ANOMALY,EPHEMERIS_TYPE,CLASSIFICATION_TYPE,NORAD_CAT_ID,ELEMENT_SET_NO,REV_AT_EPOCH,BSTAR,MEAN_MOTION_DOT,MEAN_MOTION_DDOT
UFO 11 (USA 174),2003-057A,2024-01-20T02:49:36.189408,1.00272565,.0002316,7.8339,37.1324,262.7238,296.7776,0,U,28117,999,7363,0,-.102E-5,0
USA 176 (DSP 22),2004-004A,2024-01-20T13:00:32.582592,1.00266912,.0001927,10.8603,31.9353,250.8188,118.9530,0,U,28158,999,2412,0,-.22E-5,0
ABS-4 (MOBISAT-1),2004-007A,2024-01-20T05:45:42.613056,1.00273225,.0006836,3.8005,82.5898,218.6739,325.2466,0,U,28184,999,4352,0,.41E-6,0
EUTELSAT 7A,2004-008A,2024-01-20T13:52:46.098912,1.00270872,.0003139,3.5870,82.3063,222.5557,243.5372,0,U,28187,999,7254,0,.105E-5,0
AMC-11 (GE-11),2004-017A,2024-01-20T12:22:28.049088,1.00269121,.0003044,0.0365,307.5768,340.5540,265.7516,0,U,28252,999,7206,0,-.44E-6,0
ANIK F2,2004-027A,2024-01-20T11:07:41.265984,1.00271070,.00012,1.0077,91.0039,207.0246,237.0772,0,U,28378,999,3245,0,-.45E-6,0
AMC-15,2004-041A,2024-01-20T14:39:58.253760,1.00271274,.0002638,0.0368,305.3163,347.4485,301.6265,0,U,28446,999,7050,0,-.84E-6,0
NSS-10 (AMC-12),2005-003A,2024-01-20T10:53:00.657312,1.00271153,.0003147,4.2400,80.9300,213.8841,310.2890,0,U,28526,999,4434,0,-.251E-5,0
XTAR-EUR,2005-005A,2024-01-19T19:58:30.797760,1.00273497,.0005961,2.0633,87.6954,203.8810,155.7431,0,U,28542,999,6937,0,.154E-5,0
XM-3 (RHYTHM),2005-008A,2024-01-20T10:35:18.366720,1.00268763,.0000293,0.0403,220.6667,356.8980,335.4414,0,U,28626,999,3381,0,-.2E-5,0
DIRECTV 8,2005-019A,2024-01-20T14:21:39.663072,1.00271127,.0003235,0.0275,59.9266,246.3001,269.6082,0,U,28659,999,6837,0,.5E-7,0
GALAXY 28 (G-28),2005-022A,2024-01-20T11:54:55.274112,1.00271288,.0006604,1.0246,89.7187,195.7864,283.5644,0,U,28702,999,4317,0,-.181E-5,0
THAICOM 4,2005-028A,2024-01-20T13:09:42.661152,1.00267367,.0002486,0.0231,57.7769,263.3942,115.1572,0,U,28786,999,4343,0,-.358E-5,0
GALAXY 14 (G-14),2005-030A,2024-01-20T11:13:11.179200,1.00271783,.0001669,2.7478,85.6378,211.1117,23.7441,0,U,28790,999,6749,0,.156E-5,0
ANIK F1R,2005-036A,2024-01-20T14:36:45.864288,1.00271589,.0001714,2.0493,87.4653,234.0116,269.8535,0,U,28868,999,3764,0,-.72E-6,0
SYRACUSE 3A,2005-041B,2024-01-20T11:17:04.261344,1.00269416,.0003216,2.3910,86.7216,211.2695,36.8018,0,U,28885,999,6693,0,.134E-5,0
INMARSAT 4-F2,2005-044A,2024-01-20T12:41:57.708960,1.00272468,.0002294,4.0259,41.8348,264.5081,147.0224,0,U,28899,999,6671,0,-.259E-5,0
SPACEWAY 2,2005-046B,2024-01-20T13:52:46.039296,1.00270324,.0000642,3.2550,82.0035,149.4527,317.2556,0,U,28903,999,4253,0,.104E-5,0
EUTELSAT 174A,2005-052A,2024-01-20T15:36:06.785856,1.00270625,.0006308,1.9802,87.2832,214.1622,226.0531,0,U,28924,999,4352,0,.11E-6,0
ECHOSTAR 10,2006-003A,2024-01-20T14:32:38.191776,1.00270853,.0002717,0.0523,278.6287,349.4651,319.3281,0,U,28935,999,6566,0,-.5E-6,0
SPAINSAT,2006-007A,2024-01-19T18:05:15.080064,1.00272862,.0004917,0.0613,246.3662,27.7232,85.8315,0,U,28945,999,6540,0,-.211E-5,0
